CCSDS_OMM_VERS = 2.0
CREATION_DATE  = 
ORIGINATOR     = 

OBJECT_NAME    = STARLINK-35129
OBJECT_ID      = 2025-235V
CENTER_NAME    = EARTH
REF_FRAME      = TEME
TIME_SYSTEM    = UTC
MEAN_ELEMENT_THEORY = SGP/SGP4

EPOCH          = 2025-11-18T11:37:41.714112
MEAN_MOTION    = 15.39644681
ECCENTRICITY   = .0001171
INCLINATION    = 53.1623
RA_OF_ASC_NODE = 43.3472
ARG_OF_PERICENTER = 93.2947
MEAN_ANOMALY   = 266.8192

EPHEMERIS_TYPE = 0
CLASSIFICATION_TYPE = U
NORAD_CAT_ID   = 66077
ELEMENT_SET_NO = 999
REV_AT_EPOCH   = 587
BSTAR          = .14125E-2
MEAN_MOTION_DOT = .56564E-3
MEAN_MOTION_DDOT = 0

CCSDS_OMM_VERS = 2.0
CREATION_DATE  = 
ORIGINATOR     = 

OBJECT_NAME    = STARLINK-35116
OBJECT_ID      = 2025-235W
CENTER_NAME    = EARTH
REF_FRAME      = TEME
TIME_SYSTEM    = UTC
MEAN_ELEMENT_THEORY = SGP/SGP4

EPOCH          = 2025-11-18T12:00:02.000160
MEAN_MOTION    = 15.39605888
ECCENTRICITY   = .0001783
INCLINATION    = 53.1602
RA_OF_ASC_NODE = 43.1201
ARG_OF_PERICENTER = 88.9236
MEAN_ANOMALY   = 74.4795

EPHEMERIS_TYPE = 0
CLASSIFICATION_TYPE = U
NORAD_CAT_ID   = 66078
ELEMENT_SET_NO = 999
REV_AT_EPOCH   = 597
BSTAR          = .75826E-3
MEAN_MOTION_DOT = .30036E-3
MEAN_MOTION_DDOT = 0

CCSDS_OMM_VERS = 2.0
CREATION_DATE  = 
ORIGINATOR     = 

OBJECT_NAME    = STARLINK-35402
OBJECT_ID      = 2025-235X
CENTER_NAME    = EARTH
REF_FRAME      = TEME
TIME_SYSTEM    = UTC
MEAN_ELEMENT_THEORY = SGP/SGP4

EPOCH          = 2025-11-18T12:00:02.000160
MEAN_MOTION    = 15.39587801
ECCENTRICITY   = .0001451
INCLINATION    = 53.1600
RA_OF_ASC_NODE = 43.0689
ARG_OF_PERICENTER = 74.4717
MEAN_ANOMALY   = 114.7317

EPHEMERIS_TYPE = 0
CLASSIFICATION_TYPE = U
NORAD_CAT_ID   = 66079
ELEMENT_SET_NO = 999
REV_AT_EPOCH   = 597
BSTAR          = .8216E-3
MEAN_MOTION_DOT = .32569E-3
MEAN_MOTION_DDOT = 0

CCSDS_OMM_VERS = 2.0
CREATION_DATE  = 
ORIGINATOR     = 

OBJECT_NAME    = STARLINK-35325
OBJECT_ID      = 2025-235Y
CENTER_NAME    = EARTH
REF_FRAME      = TEME
TIME_SYSTEM    = UTC
MEAN_ELEMENT_THEORY = SGP/SGP4

EPOCH          = 2025-11-18T12:00:02.000160
MEAN_MOTION    = 15.39601647
ECCENTRICITY   = .0001606
INCLINATION    = 53.1608
RA_OF_ASC_NODE = 43.1713
ARG_OF_PERICENTER = 88.5606
MEAN_ANOMALY   = 49.0941

EPHEMERIS_TYPE = 0
CLASSIFICATION_TYPE = U
NORAD_CAT_ID   = 66080
ELEMENT_SET_NO = 999
REV_AT_EPOCH   = 597
BSTAR          = .68135E-3
MEAN_MOTION_DOT = .26934E-3
MEAN_MOTION_DDOT = 0

CCSDS_OMM_VERS = 2.0
CREATION_DATE  = 
ORIGINATOR     = 

OBJECT_NAME    = STARLINK-35403
OBJECT_ID      = 2025-235Z
CENTER_NAME    = EARTH
REF_FRAME      = TEME
TIME_SYSTEM    = UTC
MEAN_ELEMENT_THEORY = SGP/SGP4

EPOCH          = 2025-11-18T12:00:02.000160
MEAN_MOTION    = 15.42293584
ECCENTRICITY   = .0001175
INCLINATION    = 53.1608
RA_OF_ASC_NODE = 42.9731
ARG_OF_PERICENTER = 78.5426
MEAN_ANOMALY   = 159.7462

EPHEMERIS_TYPE = 0
CLASSIFICATION_TYPE = U
NORAD_CAT_ID   = 66081
ELEMENT_SET_NO = 999
REV_AT_EPOCH   = 597
BSTAR          = -.61689E-1
MEAN_MOTION_DOT = -.2397767E-1
MEAN_MOTION_DDOT = 0

CCSDS_OMM_VERS = 2.0
CREATION_DATE  = 
ORIGINATOR     = 

OBJECT_NAME    = STARLINK-35011
OBJECT_ID      = 2025-235AA
CENTER_NAME    = EARTH
REF_FRAME      = TEME
TIME_SYSTEM    = UTC
MEAN_ELEMENT_THEORY = SGP/SGP4

EPOCH          = 2025-11-18T12:00:02.000160
MEAN_MOTION    = 15.39581467
ECCENTRICITY   = .000129
INCLINATION    = 53.1602
RA_OF_ASC_NODE = 43.0167
ARG_OF_PERICENTER = 70.1597
MEAN_ANOMALY   = 144.7956

EPHEMERIS_TYPE = 0
CLASSIFICATION_TYPE = U
NORAD_CAT_ID   = 66082
ELEMENT_SET_NO = 999
REV_AT_EPOCH   = 597
BSTAR          = .10318E-2
MEAN_MOTION_DOT = .41042E-3
MEAN_MOTION_DDOT = 0

CCSDS_OMM_VERS = 2.0
CREATION_DATE  = 
ORIGINATOR     = 

OBJECT_NAME    = STARLINK-35291
OBJECT_ID      = 2025-235AB
CENTER_NAME    = EARTH
REF_FRAME      = TEME
TIME_SYSTEM    = UTC
MEAN_ELEMENT_THEORY = SGP/SGP4

EPOCH          = 2025-11-17T22:29:45.299040
MEAN_MOTION    = 15.48252756
ECCENTRICITY   = .0005564
INCLINATION    = 53.1617
RA_OF_ASC_NODE = 45.6167
ARG_OF_PERICENTER = 288.6336
MEAN_ANOMALY   = 71.4068

EPHEMERIS_TYPE = 0
CLASSIFICATION_TYPE = U
NORAD_CAT_ID   = 66083
ELEMENT_SET_NO = 999
REV_AT_EPOCH   = 576
BSTAR          = .12284E-2
MEAN_MOTION_DOT = .65981E-3
MEAN_MOTION_DDOT = 0

CCSDS_OMM_VERS = 2.0
CREATION_DATE  = 
ORIGINATOR     = 

OBJECT_NAME    = STARLINK-35379
OBJECT_ID      = 2025-235AC
CENTER_NAME    = EARTH
REF_FRAME      = TEME
TIME_SYSTEM    = UTC
MEAN_ELEMENT_THEORY = SGP/SGP4

EPOCH          = 2025-11-18T10:52:08.862240
MEAN_MOTION    = 15.49338506
ECCENTRICITY   = .0001647
INCLINATION    = 53.1619
RA_OF_ASC_NODE = 43.1434
ARG_OF_PERICENTER = 55.1436
MEAN_ANOMALY   = 304.9728

EPHEMERIS_TYPE = 0
CLASSIFICATION_TYPE = U
NORAD_CAT_ID   = 66084
ELEMENT_SET_NO = 999
REV_AT_EPOCH   = 587
BSTAR          = .17562E-2
MEAN_MOTION_DOT = .98566E-3
MEAN_MOTION_DDOT = 0

CCSDS_OMM_VERS = 2.0
CREATION_DATE  = 
ORIGINATOR     = 

OBJECT_NAME    = STARLINK-35370
OBJECT_ID      = 2025-235AD
CENTER_NAME    = EARTH
REF_FRAME      = TEME
TIME_SYSTEM    = UTC
MEAN_ELEMENT_THEORY = SGP/SGP4

EPOCH          = 2025-11-18T10:51:48.060576
MEAN_MOTION    = 15.48443960
ECCENTRICITY   = .0006455
INCLINATION    = 53.1613
RA_OF_ASC_NODE = 43.1406
ARG_OF_PERICENTER = 1.0492
MEAN_ANOMALY   = 359.0529

EPHEMERIS_TYPE = 0
CLASSIFICATION_TYPE = U
NORAD_CAT_ID   = 66085
ELEMENT_SET_NO = 999
REV_AT_EPOCH   = 584
BSTAR          = -.22288E-2
MEAN_MOTION_DOT = -.119002E-2
MEAN_MOTION_DDOT = 0

CCSDS_OMM_VERS = 2.0
CREATION_DATE  = 
ORIGINATOR     = 

OBJECT_NAME    = STARLINK-35596
OBJECT_ID      = 2025-236A
CENTER_NAME    = EARTH
REF_FRAME      = TEME
TIME_SYSTEM    = UTC
MEAN_ELEMENT_THEORY = SGP/SGP4

EPOCH          = 2025-11-18T02:59:49.778880
MEAN_MOTION    = 15.49321972
ECCENTRICITY   = .00011464
INCLINATION    = 53.1602
RA_OF_ASC_NODE = 263.4983
ARG_OF_PERICENTER = 101.9942
MEAN_ANOMALY   = 258.1195

EPHEMERIS_TYPE = 0
CLASSIFICATION_TYPE = U
NORAD_CAT_ID   = 66086
ELEMENT_SET_NO = 999
REV_AT_EPOCH   = 584
BSTAR          = .14276878E-2
MEAN_MOTION_DOT = .79805E-3
MEAN_MOTION_DDOT = 0

CCSDS_OMM_VERS = 2.0
CREATION_DATE  = 
ORIGINATOR     = 

OBJECT_NAME    = STARLINK-35563
OBJECT_ID      = 2025-236B
CENTER_NAME    = EARTH
REF_FRAME      = TEME
TIME_SYSTEM    = UTC
MEAN_ELEMENT_THEORY = SGP/SGP4

EPOCH          = 2025-11-18T02:59:21.617664
MEAN_MOTION    = 15.49325488
ECCENTRICITY   = .00012988
INCLINATION    = 53.1607
RA_OF_ASC_NODE = 263.4933
ARG_OF_PERICENTER = 138.6647
MEAN_ANOMALY   = 221.4461

EPHEMERIS_TYPE = 0
CLASSIFICATION_TYPE = U
NORAD_CAT_ID   = 66087
ELEMENT_SET_NO = 999
REV_AT_EPOCH   = 578
BSTAR          = .81163742E-3
MEAN_MOTION_DOT = .44978E-3
MEAN_MOTION_DDOT = 0

CCSDS_OMM_VERS = 2.0
CREATION_DATE  = 
ORIGINATOR     = 

OBJECT_NAME    = STARLINK-35461
OBJECT_ID      = 2025-236C
CENTER_NAME    = EARTH
REF_FRAME      = TEME
TIME_SYSTEM    = UTC
MEAN_ELEMENT_THEORY = SGP/SGP4

EPOCH          = 2025-11-18T02:58:20.840448
MEAN_MOTION    = 15.49315829
ECCENTRICITY   = .00012971
INCLINATION    = 53.1598
RA_OF_ASC_NODE = 263.4903
ARG_OF_PERICENTER = 49.9348
MEAN_ANOMALY   = 310.1774

EPHEMERIS_TYPE = 0
CLASSIFICATION_TYPE = U
NORAD_CAT_ID   = 66088
ELEMENT_SET_NO = 999
REV_AT_EPOCH   = 578
BSTAR          = .10457012E-2
MEAN_MOTION_DOT = .58158E-3
MEAN_MOTION_DDOT = 0

