STARLINK-35129          
1 66077U 25235V   25322.48451058  .00056564  00000+0  14125-2 0  9992
2 66077  53.1623  43.3472 0001171  93.2947 266.8192 15.39644681  5876
STARLINK-35116          
1 66078U 25235W   25322.50002315  .00030036  00000+0  75826-3 0  9996
2 66078  53.1602  43.1201 0001783  88.9236  74.4795 15.39605888  5972
STARLINK-35402          
1 66079U 25235X   25322.50002315  .00032569  00000+0  82160-3 0  9999
2 66079  53.1600  43.0689 0001451  74.4717 114.7317 15.39587801  5978
STARLINK-35325          
1 66080U 25235Y   25322.50002315  .00026934  00000+0  68135-3 0  9996
2 66080  53.1608  43.1713 0001606  88.5606  49.0941 15.39601647  5970
STARLINK-35403          
1 66081U 25235Z   25322.50002315 -.02397767  00000+0 -61689-1 0  9991
2 66081  53.1608  42.9731 0001175  78.5426 159.7462 15.42293584  5976
STARLINK-35011          
1 66082U 25235AA  25322.50002315  .00041042  00000+0  10318-2 0  9994
2 66082  53.1602  43.0167 0001290  70.1597 144.7956 15.39581467  5979
STARLINK-35291          
1 66083U 25235AB  25321.93732985  .00065981  00000+0  12284-2 0  9996
2 66083  53.1617  45.6167 0005564 288.6336  71.4068 15.48252756  5762
STARLINK-35379          
1 66084U 25235AC  25322.45288035  .00098566  00000+0  17562-2 0  9996
2 66084  53.1619  43.1434 0001647  55.1436 304.9728 15.49338506  5879
STARLINK-35370          
1 66085U 25235AD  25322.45263959 -.00119002  00000+0 -22288-2 0  9997
2 66085  53.1613  43.1406 0006455   1.0492 359.0529 15.48443960  5844
STARLINK-35596          
1 66086U 25236A   25322.12488169  .00079805  00000+0  14277-2 0  9998
2 66086  53.1602 263.4983 0001146 101.9942 258.1195 15.49321972  5849
STARLINK-35563          
1 66087U 25236B   25322.12455575  .00044978  00000+0  81164-3 0  9997
2 66087  53.1607 263.4933 0001299 138.6647 221.4461 15.49325487  5785
STARLINK-35461          
1 66088U 25236C   25322.12385231  .00058158  00000+0  10457-2 0  9990
2 66088  53.1598 263.4903 0001297  49.9348 310.1774 15.49315829  5784
